NORAD_CAT_ID,OBJECT_NAME,OBJECT_TYPE,EPOCH,MEAN_MOTION,ECCENTRICITY,INCLINATION,RA_OF_ASC_NODE,ARG_OF_PERICENTER,MEAN_ANOMALY,BSTAR,MEAN_MOTION_DOT,MEAN_MOTION_DDOT,TLE_LINE0,TLE_LINE1,TLE_LINE2,SEMIMAJOR_AXIS,PERIOD,APOGEE,PERIGEE,DECAYED
52452.0,STARLINK-3909,PAYLOAD,2024-01-30 17:48:25,15.08844819,0.0001502,53.2176,280.9336,97.1441,262.9722,7.4259e-05,8.94e-06,0.0,0 STARLINK-3909,1 52452U 22049B   24030.74195841  .00000894  00000-0  74259-4 0  9995,2 52452  53.2176 280.9336 0001502  97.1441 262.9722 15.08844819 96181,6917.866,95.437,540.77,538.692,0.0
52452.0,STARLINK-3909,PAYLOAD,2024-01-30 22:34:34,15.08843106,0.0001369,53.2167,280.0422,101.3642,258.7504,4.8363e-05,4.82e-06,0.0,0 STARLINK-3909,1 52452U 22049B   24030.94068204  .00000482  00000-0  48363-4 0  9999,2 52452  53.2167 280.0422 0001369 101.3642 258.7504 15.08843106 96055,6917.871,95.437,540.683,538.789,0.0
52452.0,STARLINK-3909,PAYLOAD,2024-01-31 00:09:58,15.08843583,0.000138,53.2171,279.7451,100.1031,260.0116,4.6649e-05,4.55e-06,0.0,0 STARLINK-3909,1 52452U 22049B   24031.00692170  .00000455  00000-0  46649-4 0  9997,2 52452  53.2171 279.7451 0001380 100.1031 260.0116 15.08843583 96064,6917.869,95.437,540.689,538.78,0.0
52452.0,STARLINK-3909,PAYLOAD,2024-02-02 14:10:00,15.08839761,0.0001355,53.2165,268.1481,96.9412,263.1734,2.7692e-05,1.53e-06,0.0,0 STARLINK-3909,1 52452U 22049B   24033.59028392  .00000153  00000-0  27692-4 0  9994,2 52452  53.2165 268.1481 0001355  96.9412 263.1734 15.08839761 96455,6917.881,95.438,540.683,538.809,0.0
52452.0,STARLINK-3909,PAYLOAD,2024-02-02 18:56:09,15.088416,0.0001345,53.2162,267.2573,99.7914,260.323,7.3757e-05,8.86e-06,0.0,0 STARLINK-3909,1 52452U 22049B   24033.78900321  .00000886  00000-0  73757-4 0  9992,2 52452  53.2162 267.2573 0001345  99.7914 260.3230 15.08841600 96647,6917.875,95.437,540.671,538.81,0.0
52452.0,STARLINK-3909,PAYLOAD,2024-02-02 22:06:56,15.08843376,0.0001349,53.216,266.6622,98.6753,261.4392,8.6137e-05,1.083e-05,0.0,0 STARLINK-3909,1 52452U 22049B   24033.92148149  .00001083  00000-0  86137-4 0  9996,2 52452  53.2160 266.6622 0001349  98.6753 261.4392 15.08843376 96504,6917.87,95.437,540.668,538.802,0.0
52452.0,STARLINK-3909,PAYLOAD,2024-02-03 12:25:25,15.08832455,0.0001294,53.2158,263.9857,99.4357,260.6781,3.0723e-06,-2.39e-06,0.0,0 STARLINK-3909,1 52452U 22049B   24034.51765164 -.00000239  00000-0  30723-5 0  9998,2 52452  53.2158 263.9857 0001294  99.4357 260.6781 15.08832455 96597,6917.903,95.438,540.664,538.873,0.0
52452.0,STARLINK-3909,PAYLOAD,2024-02-03 20:22:20,15.08836923,0.0001268,53.2158,262.4991,96.3651,263.7486,5.4178e-05,5.74e-06,0.0,0 STARLINK-3909,1 52452U 22049B   24034.84884928  .00000574  00000-0  54178-4 0  9994,2 52452  53.2158 262.4991 0001268  96.3651 263.7486 15.08836923 96808,6917.89,95.438,540.632,538.878,0.0
52452.0,STARLINK-3909,PAYLOAD,2024-02-03 21:57:43,15.08837489,0.0001269,53.2158,262.2017,96.5596,263.5541,6.5802e-05,7.59e-06,0.0,0 STARLINK-3909,1 52452U 22049B   24034.91508919  .00000759  00000-0  65802-4 0  9996,2 52452  53.2158 262.2017 0001269  96.5596 263.5541 15.08837489 96657,6917.888,95.438,540.631,538.875,0.0
52452.0,STARLINK-3909,PAYLOAD,2024-02-04 13:51:34,15.08848111,0.0001253,53.2151,259.2279,92.8662,267.2474,0.00033579,5.061e-05,0.0,0 STARLINK-3909,1 52452U 22049B   24035.57748587  .00005061  00000-0  33579-3 0  9992,2 52452  53.2151 259.2279 0001253  92.8662 267.2474 15.08848111 96753,6917.856,95.437,540.587,538.854,0.0
52452.0,STARLINK-3909,PAYLOAD,2024-02-04 20:13:07,15.08854832,0.0001216,53.2152,258.0384,93.8202,266.2929,0.0006539,0.00010138,0.0,0 STARLINK-3909,1 52452U 22049B   24035.84244452  .00010138  00000-0  65390-3 0  9991,2 52452  53.2152 258.0384 0001216  93.8202 266.2929 15.08854832 96951,6917.835,95.437,540.541,538.859,0.0
52452.0,STARLINK-3909,PAYLOAD,2024-02-04 21:48:30,15.08855629,0.0001208,53.2152,257.7411,93.4337,266.6793,0.00064606,0.00010013,0.0,0 STARLINK-3909,1 52452U 22049B   24035.90868373  .00010013  00000-0  64606-3 0  9993,2 52452  53.2152 257.7411 0001208  93.4337 266.6793 15.08855629 96806,6917.833,95.437,540.533,538.862,0.0
52452.0,STARLINK-3909,PAYLOAD,2024-02-05 07:20:49,15.08843127,0.0001307,53.2153,255.9567,89.0335,271.0806,5.2822e-05,5.53e-06,0.0,0 STARLINK-3909,1 52452U 22049B   24036.30612414  .00000553  00000-0  52822-4 0  9997,2 52452  53.2153 255.9567 0001307  89.0335 271.0806 15.08843127 97028,6917.871,95.437,540.64,538.832,0.0
52452.0,STARLINK-3909,PAYLOAD,2024-02-05 20:03:54,15.08840333,0.0001155,53.2148,253.5783,92.4645,267.6479,0.00015321,2.151e-05,0.0,0 STARLINK-3909,1 52452U 22049B   24036.83604535  .00002151  00000-0  15321-3 0  9998,2 52452  53.2148 253.5783 0001155  92.4645 267.6479 15.08840333 96942,6917.879,95.438,540.543,538.945,0.0
52452.0,STARLINK-3909,PAYLOAD,2024-02-06 04:00:50,15.08838492,0.0001178,53.2147,252.0911,82.9833,277.1293,0.00029171,4.358e-05,0.0,0 STARLINK-3909,1 52452U 22049B   24037.16724711  .00004358  00000-0  29171-3 0  9993,2 52452  53.2147 252.0911 0001178  82.9833 277.1293 15.08838492 97153,6917.885,95.438,540.565,538.935,0.0
52452.0,STARLINK-3909,PAYLOAD,2024-02-06 21:30:04,15.08842496,0.0001329,53.2143,248.82,84.1075,276.0068,0.00040535,6.17e-05,0.0,0 STARLINK-3909,1 52452U 22049B   24037.89588920  .00006170  00000-0  40535-3 0  9994,2 52452  53.2143 248.8200 0001329  84.1075 276.0068 15.08842496 97105,6917.873,95.437,540.657,538.818,0.0
52452.0,STARLINK-3909,PAYLOAD,2024-02-07 03:51:37,15.08837798,0.0001348,53.2141,247.631,78.1369,281.9774,0.00026886,3.993e-05,0.0,0 STARLINK-3909,1 52452U 22049B   24038.16085074  .00003993  00000-0  26886-3 0  9990,2 52452  53.2141 247.6310 0001348  78.1369 281.9774 15.08837798 97302,6917.887,95.438,540.685,538.82,0.0
52452.0,STARLINK-3909,PAYLOAD,2024-02-07 13:23:56,15.08844248,0.0001311,53.2134,245.8471,84.3113,275.8029,0.00044471,6.798e-05,0.0,0 STARLINK-3909,1 52452U 22049B   24038.55828982  .00006798  00000-0  44471-3 0  9992,2 52452  53.2134 245.8471 0001311  84.3113 275.8029 15.08844248 97200,6917.867,95.437,540.639,538.825,0.0
52452.0,STARLINK-3909,PAYLOAD,2024-02-07 21:20:51,15.08848224,0.00012,53.2139,244.3596,94.3753,265.7376,0.00068221,0.00010589,0.0,0 STARLINK-3909,1 52452U 22049B   24038.88948861  .00010589  00000-0  68221-3 0  9999,2 52452  53.2139 244.3596 0001200  94.3753 265.7376 15.08848224 97251,6917.855,95.437,540.55,538.89,0.0
52452.0,STARLINK-3909,PAYLOAD,2024-02-08 06:53:10,15.0884087,0.0001248,53.2131,242.5752,87.8165,272.297,0.00032696,4.92e-05,0.0,0 STARLINK-3909,1 52452U 22049B   24039.28693018  .00004920  00000-0  32696-3 0  9994,2 52452  53.2131 242.5752 0001248  87.8165 272.2970 15.08840870 97479,6917.878,95.437,540.606,538.879,0.0
52452.0,STARLINK-3909,PAYLOAD,2024-02-08 13:14:43,15.08843951,0.0001267,53.2133,241.386,82.863,277.2506,0.00029219,4.366e-05,0.0,0 STARLINK-3909,1 52452U 22049B   24039.55189039  .00004366  00000-0  29219-3 0  9998,2 52452  53.2133 241.3860 0001267  82.8630 277.2506 15.08843951 97351,6917.868,95.437,540.61,538.857,0.0
52452.0,STARLINK-3909,PAYLOAD,2024-02-08 19:36:15,15.08842019,0.0001275,53.2131,240.1961,85.1633,274.9505,0.00026699,3.964e-05,0.0,0 STARLINK-3909,1 52452U 22049B   24039.81685106  .00003964  00000-0  26699-3 0  9995,2 52452  53.2131 240.1961 0001275  85.1633 274.9505 15.08842019 97397,6917.874,95.437,540.621,538.857,0.0
52452.0,STARLINK-3909,PAYLOAD,2024-02-09 19:27:02,15.08847114,0.0001277,53.2138,235.7356,80.6662,279.4474,0.00023915,3.521e-05,0.0,0 STARLINK-3909,1 52452U 22049B   24040.81044932  .00003521  00000-0  23915-3 0  9990,2 52452  53.2138 235.7356 0001277  80.6662 279.4474 15.08847114 97707,6917.859,95.437,540.607,538.84,0.0
52452.0,STARLINK-3909,PAYLOAD,2024-02-10 19:17:50,15.08842507,0.0001369,53.2155,231.2746,96.6799,263.4349,0.00011597,1.558e-05,0.0,0 STARLINK-3909,1 52452U 22049B   24041.80405112  .00001558  00000-0  11597-3 0  9992,2 52452  53.2155 231.2746 0001369  96.6799 263.4349 15.08842507 97851,6917.873,95.437,540.685,538.791,0.0
52452.0,STARLINK-3909,PAYLOAD,2024-02-11 12:47:04,15.08842976,0.0001419,53.216,228.0024,102.945,257.1701,0.00012494,1.701e-05,0.0,0 STARLINK-3909,1 52452U 22049B   24042.53268944  .00001701  00000-0  12494-3 0  9990,2 52452  53.2160 228.0024 0001419 102.9450 257.1701 15.08842976 97808,6917.871,95.437,540.718,538.755,0.0
52452.0,STARLINK-3909,PAYLOAD,2024-02-11 19:08:36,15.08845778,0.00014,53.2159,226.813,100.0071,260.1079,0.0001452,2.024e-05,0.0,0 STARLINK-3909,1 52452U 22049B   24042.79764731  .00002024  00000-0  14520-3 0  9994,2 52452  53.2159 226.8130 0001400 100.0071 260.1079 15.08845778 97847,6917.863,95.437,540.696,538.759,0.0
52452.0,STARLINK-3909,PAYLOAD,2024-02-12 11:02:28,15.08838916,0.000139,53.2152,223.8433,84.8974,275.2177,7.3893e-05,8.88e-06,0.0,0 STARLINK-3909,1 52452U 22049B   24043.46005152  .00000888  00000-0  73893-4 0  9999,2 52452  53.2152 223.8433 0001390  84.8974 275.2177 15.08838916 98104,6917.884,95.438,540.71,538.787,0.0
52452.0,STARLINK-3909,PAYLOAD,2024-02-12 17:24:01,15.08834506,0.0001351,53.2165,222.6503,94.7641,265.3506,5.02e-05,5.11e-06,0.0,0 STARLINK-3909,1 52452U 22049B   24043.72501693  .00000511  00000-0  50200-4 0  9999,2 52452  53.2165 222.6503 0001351  94.7641 265.3506 15.08834506 98142,6917.897,95.438,540.697,538.828,0.0
52452.0,STARLINK-3909,PAYLOAD,2024-02-13 12:28:39,15.08837373,0.0001451,53.2168,219.0815,96.2839,263.8318,6.1525e-05,6.91e-06,0.0,0 STARLINK-3909,1 52452U 22049B   24044.51989702  .00000691  00000-0  61525-4 0  9999,2 52452  53.2168 219.0815 0001451  96.2839 263.8318 15.08837373 98103,6917.888,95.438,540.757,538.75,0.0
52452.0,STARLINK-3909,PAYLOAD,2024-02-13 18:50:11,15.08843125,0.0001416,53.2166,217.8925,91.3978,268.7176,0.00010229,1.341e-05,0.0,0 STARLINK-3909,1 52452U 22049B   24044.78485319  .00001341  00000-0  10229-3 0  9990,2 52452  53.2166 217.8925 0001416  91.3978 268.7176 15.08843125 98300,6917.871,95.437,540.715,538.756,0.0
